NORAD_CAT_ID,OBJECT_NAME,OBJECT_TYPE,EPOCH,MEAN_MOTION,ECCENTRICITY,INCLINATION,RA_OF_ASC_NODE,ARG_OF_PERICENTER,MEAN_ANOMALY,BSTAR,MEAN_MOTION_DOT,MEAN_MOTION_DDOT,TLE_LINE0,TLE_LINE1,TLE_LINE2,SEMIMAJOR_AXIS,PERIOD,APOGEE,PERIGEE,DECAYED
52137.0,STARLINK-3733,PAYLOAD,2022-11-21 11:23:40,15.0885063,0.0002234,53.2214,75.0576,40.2404,319.8753,5.0427e-05,5.15e-06,0.0,0 STARLINK-3733,1 52137U 22029BB  22325.47477283  .00000515  00000-0  50427-4 0  9992,2 52137  53.2214  75.0576 0002234  40.2404 319.8753 15.08850630 39141,6917.848000000001,95.437,541.258,538.1669999999998,0.0
52137.0,STARLINK-3733,PAYLOAD,2022-11-21 16:09:49,15.08849266,0.0002347,53.2211,74.1659,37.6993,322.4163,5.400300000000001e-05,5.71e-06,0.0,0 STARLINK-3733,1 52137U 22029BB  22325.67349323  .00000571  00000-0  54003-4 0  9993,2 52137  53.2211  74.1659 0002347  37.6993 322.4163 15.08849266 39179,6917.852,95.437,541.341,538.0930000000002,0.0
52137.0,STARLINK-3733,PAYLOAD,2022-11-22 00:06:46,15.08841365,0.0002387,53.2209,72.6786,37.7085,322.4074,-5.1152e-05,-1.102e-05,0.0,0 STARLINK-3733,1 52137U 22029BB  22326.00469949 -.00001102  00000-0 -51152-4 0  9993,2 52137  53.2209  72.6786 0002387  37.7085 322.4074 15.08841365 39226,6917.876,95.437,541.393,538.09,0.0
52137.0,STARLINK-3733,PAYLOAD,2022-11-22 12:49:50,15.08849343,0.0002266,53.2208,70.2978,39.0158,321.0997,8.4746e-05,1.061e-05,0.0,0 STARLINK-3733,1 52137U 22029BB  22326.53461122  .00001061  00000-0  84746-4 0  9993,2 52137  53.2208  70.2978 0002266  39.0158 321.0997 15.08849343 39306,6917.852,95.437,541.284,538.149,0.0
52137.0,STARLINK-3733,PAYLOAD,2022-11-22 14:25:13,15.08850882,0.0002295,53.2208,70.0005,38.7249,321.3908,0.00010174,1.332e-05,0.0,0 STARLINK-3733,1 52137U 22029BB  22326.60084989  .00001332  00000-0  10174-3 0  9997,2 52137  53.2208  70.0005 0002295  38.7249 321.3908 15.08850882 39310,6917.847,95.437,541.3,538.124,0.0
52137.0,STARLINK-3733,PAYLOAD,2022-11-22 19:11:23,15.08841603,0.0002268,53.2209,69.1088,38.2374,321.8779,-1.9625e-05,-6.01e-06,0.0,0 STARLINK-3733,1 52137U 22029BB  22326.79957249 -.00000601  00000-0 -19625-4 0  9996,2 52137  53.2209  69.1088 0002268  38.2374 321.8779 15.08841603 39340,6917.875,95.437,541.309,538.172,0.0
52137.0,STARLINK-3733,PAYLOAD,2022-11-23 19:02:10,15.08836257,0.0002378,53.2207,64.6495,35.6915,324.4236,-2.103e-05,-6.23e-06,0.0,0 STARLINK-3733,1 52137U 22029BB  22327.79318266 -.00000623  00000-0 -21030-4 0  9994,2 52137  53.2207  64.6495 0002378  35.6915 324.4236 15.08836257 39496,6917.892,95.438,541.4019999999998,538.112,0.0
52137.0,STARLINK-3733,PAYLOAD,2022-11-23 23:48:20,15.0883982,0.0002075,53.2196,63.7585,38.0895,322.0244,-5.2834e-05,-1.129e-05,0.0,0 STARLINK-3733,1 52137U 22029BB  22327.99190035 -.00001129  00000-0 -52834-4 0  9996,2 52137  53.2196  63.7585 0002075  38.0895 322.0244 15.08839820 39527,6917.880999999999,95.438,541.181,538.31,0.0
52137.0,STARLINK-3733,PAYLOAD,2022-11-24 10:56:02,15.08842037,0.0002371,53.2192,61.6774,34.2499,325.8646,6.167e-05,6.93e-06,0.0,0 STARLINK-3733,1 52137U 22029BB  22328.45557879  .00000693  00000-0  61670-4 0  9992,2 52137  53.2192  61.6774 0002371  34.2499 325.8646 15.08842037 39595,6917.874,95.437,541.379,538.099,0.0
52137.0,STARLINK-3733,PAYLOAD,2022-11-24 15:42:11,15.0884767,0.0002457,53.221,60.7831,38.0182,322.0983,8.8131e-05,1.115e-05,0.0,0 STARLINK-3733,1 52137U 22029BB  22328.65429509  .00001115  00000-0  88131-4 0  9993,2 52137  53.2210  60.7831 0002457  38.0182 322.0983 15.08847670 39621,6917.857,95.437,541.422,538.0219999999998,0.0
52137.0,STARLINK-3733,PAYLOAD,2022-11-24 18:52:57,15.08849184,0.0002463,53.2211,60.1885,37.4398,322.6765,9.9171e-05,1.291e-05,0.0,0 STARLINK-3733,1 52137U 22029BB  22328.78677319  .00001291  00000-0  99171-4 0  9992,2 52137  53.2211  60.1885 0002463  37.4398 322.6765 15.08849184 39642,6917.852,95.437,541.4209999999998,538.013,0.0
52137.0,STARLINK-3733,PAYLOAD,2022-11-25 12:22:09,15.08862455,0.0002265,53.2214,56.9196,20.5087,339.5996,0.00030774,4.616e-05,0.0,0 STARLINK-3733,1 52137U 22029BB  22329.51539332  .00004616  00000-0  30774-3 0  9993,2 52137  53.2214  56.9196 0002265  20.5087 339.5996 15.08862455 39752,6917.812,95.436,541.244,538.11,0.0
52137.0,STARLINK-3733,PAYLOAD,2022-11-25 17:08:20,15.08844227,0.0002469,53.2205,56.026,31.5302,328.5837,0.00013693,1.892e-05,0.0,0 STARLINK-3733,1 52137U 22029BB  22329.71413071  .00001892  00000-0  13693-3 0  9990,2 52137  53.2205  56.0260 0002469  31.5302 328.5837 15.08844227 39785,6917.8669999999975,95.437,541.44,538.024,0.0
52137.0,STARLINK-3733,PAYLOAD,2022-11-26 10:37:35,15.08846685,0.0002607,53.2203,52.7562,29.4246,330.6893,6.4701e-05,7.42e-06,0.0,0 STARLINK-3733,1 52137U 22029BB  22330.44276681  .00000742  00000-0  64701-4 0  9996,2 52137  53.2203  52.7562 0002607  29.4246 330.6893 15.08846685 39896,6917.86,95.437,541.528,537.9209999999998,0.0
52137.0,STARLINK-3733,PAYLOAD,2022-11-26 16:59:07,15.08850896,0.000262,53.2205,51.5664,28.7489,331.3647,3.8631e-05,3.27e-06,0.0,0 STARLINK-3733,1 52137U 22029BB  22330.70772274  .00000327  00000-0  38631-4 0  9996,2 52137  53.2205  51.5664 0002620  28.7489 331.3647 15.08850896 39933,6917.847,95.437,541.525,537.9,0.0
52137.0,STARLINK-3733,PAYLOAD,2022-11-27 08:52:58,15.08842589,0.0002485,53.2193,48.594,20.9016,339.2077,-0.00010587,-1.973e-05,0.0,0 STARLINK-3733,1 52137U 22029BB  22331.37012363 -.00001973  00000-0 -10587-3 0  9995,2 52137  53.2193  48.5940 0002485  20.9016 339.2077 15.08842589 40038,6917.871999999999,95.437,541.457,538.018,0.0
52137.0,STARLINK-3733,PAYLOAD,2022-11-27 12:03:45,15.08828382,0.0002452,53.2188,47.9987,23.6193,336.4912,-0.00028296,-4.788e-05,0.0,0 STARLINK-3733,1 52137U 22029BB  22331.50261058 -.00004788  00000-0 -28296-3 0  9990,2 52137  53.2188  47.9987 0002452  23.6193 336.4912 15.08828382 40050,6917.916,95.438,541.477,538.085,0.0
52137.0,STARLINK-3733,PAYLOAD,2022-11-27 16:49:55,15.08833639,0.0002506,53.2191,47.1061,22.0502,338.0598,-0.00016083,-2.847e-05,0.0,0 STARLINK-3733,1 52137U 22029BB  22331.70133480 -.00002847  00000-0 -16083-3 0  9994,2 52137  53.2191  47.1061 0002506  22.0502 338.0598 15.08833639 40088,6917.9,95.438,541.498,538.031,0.0
52137.0,STARLINK-3733,PAYLOAD,2022-11-28 10:19:13,15.0878974,0.0002648999999999,53.219,43.8357,16.7043,343.4036,-0.00038754,-6.443e-05,0.0,0 STARLINK-3733,1 52137U 22029BB  22332.43002173 -.00006443  00000-0 -38754-3 0  9994,2 52137  53.2190  43.8357 0002649  16.7043 343.4036 15.08789740 40198,6918.034000000002,95.441,541.732,538.066,0.0
52137.0,STARLINK-3733,PAYLOAD,2022-11-28 15:05:20,15.08828226,0.0002601,53.2191,42.9433,28.1598,331.9534,-4.9615e-05,-1.078e-05,0.0,0 STARLINK-3733,1 52137U 22029BB  22332.62871325 -.00001078  00000-0 -49615-4 0  9996,2 52137  53.2191  42.9433 0002601  28.1598 331.9534 15.08828226 40226,6917.916,95.438,541.581,537.982,0.0
52137.0,STARLINK-3733,PAYLOAD,2022-11-29 11:45:21,15.08825425,0.0002508,53.2189,39.0771,29.8746,330.2389,0.00016117,2.277e-05,0.0,0 STARLINK-3733,1 52137U 22029BB  22333.48983568  .00002277  00000-0  16117-3 0  9994,2 52137  53.2189  39.0771 0002508  29.8746 330.2389 15.08825425 40356,6917.925,95.438,541.525,538.055,0.0
52137.0,STARLINK-3733,PAYLOAD,2022-11-29 14:56:07,15.08832659,0.0002657,53.219,38.4827,31.3283,328.7867,0.0002146,3.128e-05,0.0,0 STARLINK-3733,1 52137U 22029BB  22333.62231044  .00003128  00000-0  21460-3 0  9998,2 52137  53.2190  38.4827 0002657  31.3283 328.7867 15.08832659 40374,6917.903,95.438,541.606,537.93,0.0
52137.0,STARLINK-3733,PAYLOAD,2022-11-30 06:49:59,15.08815,0.0002603,53.2189,35.5095,33.9778,326.1381,0.00041579,6.331e-05,0.0,0 STARLINK-3733,1 52137U 22029BB  22334.28471843  .00006331  00000-0  41579-3 0  9996,2 52137  53.2189  35.5095 0002603  33.9778 326.1381 15.08815000 40470,6917.956999999999,95.439,541.623,538.021,0.0
52137.0,STARLINK-3733,PAYLOAD,2022-11-30 13:11:32,15.08818083,0.0002663,53.2189,34.3202,34.6511,325.4654,0.00040119,6.099e-05,0.0,0 STARLINK-3733,1 52137U 22029BB  22334.54968075  .00006099  00000-0  40119-3 0  9993,2 52137  53.2189  34.3202 0002663  34.6511 325.4654 15.08818083 40510,6917.946999999999,95.439,541.655,537.97,0.0
52137.0,STARLINK-3733,PAYLOAD,2022-12-01 03:30:00,15.08845566,0.0002835,53.219,31.6442,36.5083,323.6102,8.8513e-05,1.121e-05,0.0,0 STARLINK-3733,1 52137U 22029BB  22335.14583511  .00001121  00000-0  88513-4 0  9990,2 52137  53.2190  31.6442 0002835  36.5083 323.6102 15.08845566 40608,6917.863,95.437,541.69,537.7669999999998,0.0
52137.0,STARLINK-3733,PAYLOAD,2022-12-01 13:02:18,15.08852026,0.0002848,53.219,29.8602,36.6735,323.4452,2.0637e-05,4e-07,0.0,0 STARLINK-3733,1 52137U 22029BB  22335.54327100  .00000040  00000-0  20637-4 0  9996,2 52137  53.2190  29.8602 0002848  36.6735 323.4452 15.08852026 40665,6917.844,95.437,541.679,537.738,0.0
52137.0,STARLINK-3733,PAYLOAD,2022-12-01 16:13:04,15.08856518,0.0002851,53.2188,29.265,36.3083,323.8102,5.4046e-05,5.72e-06,0.0,0 STARLINK-3733,1 52137U 22029BB  22335.67574589  .00000572  00000-0  54046-4 0  9996,2 52137  53.2188  29.2650 0002851  36.3083 323.8102 15.08856518 40684,6917.83,95.437,541.6669999999998,537.7230000000002,0.0
52137.0,STARLINK-3733,PAYLOAD,2022-12-02 12:53:04,15.08851822,0.0002667,53.2177,25.3988,32.4014,327.7141,3.1821e-05,2.18e-06,0.0,0 STARLINK-3733,1 52137U 22029BB  22336.53686162  .00000218  00000-0  31821-4 0  9996,2 52137  53.2177  25.3988 0002667  32.4014 327.7141 15.08851822 40813,6917.844,95.437,541.554,537.864,0.0
52137.0,STARLINK-3733,PAYLOAD,2022-12-03 09:33:06,15.08839277,0.0002708,53.2187,21.5339,35.9829,324.1345,-4.5224e-05,-1.008e-05,0.0,0 STARLINK-3733,1 52137U 22029BB  22337.39798830 -.00001008  00000-0 -45224-4 0  9999,2 52137  53.2187  21.5339 0002708  35.9829 324.1345 15.08839277 40941,6917.8830000000025,95.438,541.621,537.874,0.0
